[{"OBJECT_NAME":"HULIANWANG DIGUI-114","OBJECT_ID":"2025-287A","EPOCH":"2026-03-09T20:55:14.430720","MEAN_MOTION":13.24416147,"ECCENTRICITY":0.00019789,"INCLINATION":86.4965,"RA_OF_ASC_NODE":315.9492,"ARG_OF_PERICENTER":79.1535,"MEAN_ANOMALY":280.9822,"EPHEMERIS_TYPE":0,"CLASSIFICATION_TYPE":"U","NORAD_CAT_ID":66953,"ELEMENT_SET_NO":999,"REV_AT_EPOCH":1219,"BSTAR":0.00012291866,"MEAN_MOTION_DOT":6.7e-7,"MEAN_MOTION_DDOT":0},{"OBJECT_NAME":"DELTA 1 DEB","OBJECT_ID":"1975-052FG","EPOCH":"2026-03-09T13:03:45.092160","MEAN_MOTION":13.59256001,"ECCENTRICITY":0.02471645,"INCLINATION":99.7853,"RA_OF_ASC_NODE":295.5573,"ARG_OF_PERICENTER":24.1666,"MEAN_ANOMALY":337.084,"EPHEMERIS_TYPE":0,"CLASSIFICATION_TYPE":"U","NORAD_CAT_ID":21472,"ELEMENT_SET_NO":999,"REV_AT_EPOCH":71826,"BSTAR":0.0010841949,"MEAN_MOTION_DOT":9.32e-6,"MEAN_MOTION_DDOT":0}]
